STARLINK-2022           
1 47643U 21012Z   24074.38167393  .00000358  00000+0  42928-4 0  9991
2 47643  53.0544  67.6495 0001527  95.9813 264.1350 15.06399652170942
